PANDORA
1 67395U 80229J   26109.61746528  .00000000  00000-0  37770-3 0    08
2 67395  97.8036 109.1890 0004400 338.1369 115.0856 14.87964426    01
